start=new Date('2022-05-06T00:00:00.000Z').valueOf();
sats=[{"DECAY_DATE":null,"PERIOD":"95.592","OBJECT_TYPE":"PAYLOAD","ARG_OF_PERICENTER":"72.1297","PERIAPSIS":"546.240","RCS_SIZE":"LARGE","COUNTRY_CODE":"US","OBJECT_NAME":"STARLINK-2475","INCLINATION":"53.0572","REF_FRAME":"TEME","OBJECT_ID":"2021-027AT","FILE":"3430529","MEAN_MOTION_DOT":"0.00001801","LAUNCH_DATE":"2021-04-07","TLE_LINE2":"2 48133  53.0572 353.5557 0001404  72.1297 287.9845 15.06400316 60435","CLASSIFICATION_TYPE":"U","TIME_SYSTEM":"UTC","RA_OF_ASC_NODE":"353.5557","REV_AT_EPOCH":"6043","SITE":"AFETR","MEAN_ANOMALY":"287.9845","EPOCH":"2022-05-05T21:14:25.853280","MEAN_MOTION_DDOT":"0.0000000000000","ECCENTRICITY":"0.00014040","NORAD_CAT_ID":"48133","MEAN_MOTION":"15.06400316","BSTAR":"0.00013976000000","MEAN_ELEMENT_THEORY":"SGP4","CENTER_NAME":"EARTH","EPHEMERIS_TYPE":"0","APOAPSIS":"548.185","TLE_LINE1":"1 48133U 21027AT  22125.88502145  .00001801  00000-0  13976-3 0  9995","ELEMENT_SET_NO":"999","SEMIMAJOR_AXIS":"6925.348","GP_ID":"202776261"},{"PERIOD":"95.592","OBJECT_TYPE":"PAYLOAD","DECAY_DATE":null,"OBJECT_NAME":"STARLINK-2476","INCLINATION":"53.0572","REF_FRAME":"TEME","ARG_OF_PERICENTER":"75.7941","RCS_SIZE":"LARGE","PERIAPSIS":"546.133","COUNTRY_CODE":"US","OBJECT_ID":"2021-027AU","FILE":"3430541","MEAN_MOTION_DOT":"0.00000420","LAUNCH_DATE":"2021-04-07","CLASSIFICATION_TYPE":"U","TLE_LINE2":"2 48134  53.0572 353.6160 0001568  75.7941 284.3222 15.06398411 60435","TIME_SYSTEM":"UTC","EPOCH":"2022-05-05T20:53:11.995872","MEAN_MOTION_DDOT":"0.0000000000000","NORAD_CAT_ID":"48134","ECCENTRICITY":"0.00015680","RA_OF_ASC_NODE":"353.6160","SITE":"AFETR","REV_AT_EPOCH":"6043","MEAN_ANOMALY":"284.3222","MEAN_ELEMENT_THEORY":"SGP4","CENTER_NAME":"EARTH","MEAN_MOTION":"15.06398411","BSTAR":"0.00004707100000","SEMIMAJOR_AXIS":"6925.353","GP_ID":"202776862","APOAPSIS":"548.304","EPHEMERIS_TYPE":"0","TLE_LINE1":"1 48134U 21027AU  22125.87027773  .00000420  00000-0  47071-4 0  9994","ELEMENT_SET_NO":"999"},{"EPOCH":"2022-05-05T20:32:35.509056","MEAN_MOTION_DDOT":"0.0000000000000","NORAD_CAT_ID":"48135","ECCENTRICITY":"0.00016590","RA_OF_ASC_NODE":"358.6731","SITE":"AFETR","REV_AT_EPOCH":"6075","MEAN_ANOMALY":"278.4535","CLASSIFICATION_TYPE":"U","TLE_LINE2":"2 48135  53.0564 358.6731 0001659  81.6642 278.4535 15.06400483 60750","TIME_SYSTEM":"UTC","SEMIMAJOR_AXIS":"6925.347","GP_ID":"202804211","EPHEMERIS_TYPE":"0","APOAPSIS":"548.361","TLE_LINE1":"1 48135U 21027AV  22125.85596654 -.00000370  00000-0 -59447-5 0  9999","ELEMENT_SET_NO":"999","MEAN_ELEMENT_THEORY":"SGP4","CENTER_NAME":"EARTH","MEAN_MOTION":"15.06400483","BSTAR":"-0.00000594470000","OBJECT_NAME":"STARLINK-2478","INCLINATION":"53.0564","REF_FRAME":"TEME","ARG_OF_PERICENTER":"81.6642","RCS_SIZE":"LARGE","PERIAPSIS":"546.063","COUNTRY_CODE":"US","OBJECT_TYPE":"PAYLOAD","PERIOD":"95.592","DECAY_DATE":null,"LAUNCH_DATE":"2021-04-07","FILE":"3430750","MEAN_MOTION_DOT":"-0.00000370","OBJECT_ID":"2021-027AV"},{"BSTAR":"0.00026677000000","MEAN_MOTION":"15.06409022","CENTER_NAME":"EARTH","MEAN_ELEMENT_THEORY":"SGP4","EPHEMERIS_TYPE":"0","APOAPSIS":"548.155","TLE_LINE1":"1 48136U 21027AW  22125.89607294  .00003695  00000-0  26677-3 0  9995","ELEMENT_SET_NO":"999","GP_ID":"202802969","SEMIMAJOR_AXIS":"6925.321","TIME_SYSTEM":"UTC","TLE_LINE2":"2 48136  53.0550 353.5008 0001399  74.8859 285.2285 15.06409022 60837","CLASSIFICATION_TYPE":"U","MEAN_ANOMALY":"285.2285","RA_OF_ASC_NODE":"353.5008","REV_AT_EPOCH":"6083","SITE":"AFETR","ECCENTRICITY":"0.00013990","NORAD_CAT_ID":"48136","EPOCH":"2022-05-05T21:30:20.702016","MEAN_MOTION_DDOT":"0.0000000000000","OBJECT_ID":"2021-027AW","LAUNCH_DATE":"2021-04-07","FILE":"3430750","MEAN_MOTION_DOT":"0.00003695","DECAY_DATE":null,"PERIOD":"95.592","OBJECT_TYPE":"PAYLOAD","RCS_SIZE":"LARGE","PERIAPSIS":"546.217","COUNTRY_CODE":"US","ARG_OF_PERICENTER":"74.8859","INCLINATION":"53.0550","REF_FRAME":"TEME","OBJECT_NAME":"STARLINK-2479"},{"SEMIMAJOR_AXIS":"6925.308","GP_ID":"202776929","ELEMENT_SET_NO":"999","TLE_LINE1":"1 48137U 21027AX  22125.85642740  .00008090  00000-0  56115-3 0  9991","EPHEMERIS_TYPE":"0","APOAPSIS":"548.181","CENTER_NAME":"EARTH","MEAN_ELEMENT_THEORY":"SGP4","BSTAR":"0.00056115000000","MEAN_MOTION":"15.06413166","NORAD_CAT_ID":"48137","ECCENTRICITY":"0.00014550","MEAN_MOTION_DDOT":"0.0000000000000","EPOCH":"2022-05-05T20:33:15.327360","MEAN_ANOMALY":"285.7102","SITE":"AFETR","REV_AT_EPOCH":"6070","RA_OF_ASC_NODE":"333.6715","TIME_SYSTEM":"UTC","CLASSIFICATION_TYPE":"U","TLE_LINE2":"2 48137  53.0563 333.6715 0001455  74.4047 285.7102 15.06413166 60707","MEAN_MOTION_DOT":"0.00008090","FILE":"3430545","LAUNCH_DATE":"2021-04-07","OBJECT_ID":"2021-027AX","REF_FRAME":"TEME","INCLINATION":"53.0563","OBJECT_NAME":"STARLINK-2480","COUNTRY_CODE":"US","RCS_SIZE":"LARGE","PERIAPSIS":"546.166","ARG_OF_PERICENTER":"74.4047","PERIOD":"95.591","OBJECT_TYPE":"PAYLOAD","DECAY_DATE":null},{"EPHEMERIS_TYPE":"0","APOAPSIS":"548.256","TLE_LINE1":"1 48138U 21027AY  22125.88133533  .00001295  00000-0  10581-3 0  9997","ELEMENT_SET_NO":"999","GP_ID":"202803970","SEMIMAJOR_AXIS":"6925.330","MEAN_MOTION":"15.06406079","BSTAR":"0.00010581000000","MEAN_ELEMENT_THEORY":"SGP4","CENTER_NAME":"EARTH","RA_OF_ASC_NODE":"353.5733","SITE":"AFETR","REV_AT_EPOCH":"6083","MEAN_ANOMALY":"282.4898","EPOCH":"2022-05-05T21:09:07.372512","MEAN_MOTION_DDOT":"0.0000000000000","ECCENTRICITY":"0.00015320","NORAD_CAT_ID":"48138","CLASSIFICATION_TYPE":"U","TLE_LINE2":"2 48138  53.0563 353.5733 0001532  77.6262 282.4898 15.06406079 60834","TIME_SYSTEM":"UTC","LAUNCH_DATE":"2021-04-07","FILE":"3430750","MEAN_MOTION_DOT":"0.00001295","OBJECT_ID":"2021-027AY","ARG_OF_PERICENTER":"77.6262","RCS_SIZE":"LARGE","PERIAPSIS":"546.134","COUNTRY_CODE":"US","OBJECT_NAME":"STARLINK-2481","INCLINATION":"53.0563","REF_FRAME":"TEME","DECAY_DATE":null,"OBJECT_TYPE":"PAYLOAD","PERIOD":"95.592"},{"EPHEMERIS_TYPE":"0","APOAPSIS":"548.143","TLE_LINE1":"1 48139U 21027AZ  22125.80576625  .00000431  00000-0  47847-4 0  9990","ELEMENT_SET_NO":"999","SEMIMAJOR_AXIS":"6925.325","GP_ID":"202776914","BSTAR":"0.00004784700000","MEAN_MOTION":"15.06407781","CENTER_NAME":"EARTH","MEAN_ELEMENT_THEORY":"SGP4","MEAN_ANOMALY":"288.3458","RA_OF_ASC_NODE":"333.9018","REV_AT_EPOCH":"6070","SITE":"AFETR","ECCENTRICITY":"0.00013770","NORAD_CAT_ID":"48139","EPOCH":"2022-05-05T19:20:18.204000","MEAN_MOTION_DDOT":"0.0000000000000","TIME_SYSTEM":"UTC","TLE_LINE2":"2 48139  53.0561 333.9018 0001377  71.7680 288.3458 15.06407781 60701","CLASSIFICATION_TYPE":"U","FILE":"3430544","MEAN_MOTION_DOT":"0.00000431","LAUNCH_DATE":"2021-04-07","OBJECT_ID":"2021-027AZ","RCS_SIZE":"LARGE","PERIAPSIS":"546.236","COUNTRY_CODE":"US","ARG_OF_PERICENTER":"71.7680","INCLINATION":"53.0561","REF_FRAME":"TEME","OBJECT_NAME":"STARLINK-2482","DECAY_DATE":null,"OBJECT_TYPE":"PAYLOAD","PERIOD":"95.592"},{"MEAN_ANOMALY":"289.2393","RA_OF_ASC_NODE":"353.4580","SITE":"AFETR","REV_AT_EPOCH":"6083","NORAD_CAT_ID":"48140","ECCENTRICITY":"0.00016050","EPOCH":"2022-05-05T21:44:54.442752","MEAN_MOTION_DDOT":"0.0000000000000","TIME_SYSTEM":"UTC","CLASSIFICATION_TYPE":"U","TLE_LINE2":"2 48140  53.0535 353.4580 0001605  70.8770 289.2393 15.06413132 60838","APOAPSIS":"548.285","EPHEMERIS_TYPE":"0","TLE_LINE1":"1 48140U 21027BA  22125.90618568  .00002381  00000-0  17860-3 0  9993","ELEMENT_SET_NO":"999","SEMIMAJOR_AXIS":"6925.308","GP_ID":"202802471","BSTAR":"0.00017860000000","MEAN_MOTION":"15.06413132","CENTER_NAME":"EARTH","MEAN_ELEMENT_THEORY":"SGP4","RCS_SIZE":"LARGE","PERIAPSIS":"546.062","COUNTRY_CODE":"US","ARG_OF_PERICENTER":"70.8770","INCLINATION":"53.0535","REF_FRAME":"TEME","OBJECT_NAME":"STARLINK-2483","DECAY_DATE":null,"PERIOD":"95.591","OBJECT_TYPE":"PAYLOAD","FILE":"3430750","LAUNCH_DATE":"2021-04-07","MEAN_MOTION_DOT":"0.00002381","OBJECT_ID":"2021-027BA"},{"TLE_LINE2":"2 48141  53.0530 353.6429 0001672  41.9982 318.1135 15.06408847 60840","CLASSIFICATION_TYPE":"U","TIME_SYSTEM":"UTC","MEAN_MOTION_DDOT":"0.0000000000000","EPOCH":"2022-05-05T20:42:34.716384","ECCENTRICITY":"0.00016720","NORAD_CAT_ID":"48141","REV_AT_EPOCH":"6084","SITE":"AFETR","RA_OF_ASC_NODE":"353.6429","MEAN_ANOMALY":"318.1135","MEAN_ELEMENT_THEORY":"SGP4","CENTER_NAME":"EARTH","MEAN_MOTION":"15.06408847","BSTAR":"0.00017636000000","SEMIMAJOR_AXIS":"6925.321","GP_ID":"202803220","ELEMENT_SET_NO":"999","TLE_LINE1":"1 48141U 21027BB  22125.86290181  .00002347  00000-0  17636-3 0  9999","EPHEMERIS_TYPE":"0","APOAPSIS":"548.344","OBJECT_TYPE":"PAYLOAD","PERIOD":"95.592","DECAY_DATE":null,"OBJECT_NAME":"STARLINK-2484","REF_FRAME":"TEME","INCLINATION":"53.0530","ARG_OF_PERICENTER":"41.9982","COUNTRY_CODE":"US","PERIAPSIS":"546.029","RCS_SIZE":"LARGE","OBJECT_ID":"2021-027BB","FILE":"3430750","LAUNCH_DATE":"2021-04-07","MEAN_MOTION_DOT":"0.00002347"},{"REF_FRAME":"TEME","INCLINATION":"53.0563","OBJECT_NAME":"STARLINK-2485","COUNTRY_CODE":"US","RCS_SIZE":"LARGE","PERIAPSIS":"546.315","ARG_OF_PERICENTER":"91.7783","PERIOD":"95.593","OBJECT_TYPE":"PAYLOAD","DECAY_DATE":null,"MEAN_MOTION_DOT":"-0.00000217","FILE":"3430550","LAUNCH_DATE":"2021-04-07","OBJECT_ID":"2021-027BC","ECCENTRICITY":"0.00013260","NORAD_CAT_ID":"48142","MEAN_MOTION_DDOT":"0.0000000000000","EPOCH":"2022-05-05T20:50:33.070848","MEAN_ANOMALY":"268.3357","SITE":"AFETR","REV_AT_EPOCH":"6071","RA_OF_ASC_NODE":"333.6265","TIME_SYSTEM":"UTC","CLASSIFICATION_TYPE":"U","TLE_LINE2":"2 48142  53.0563 333.6265 0001326  91.7783 268.3357 15.06393427 60716","GP_ID":"202777004","SEMIMAJOR_AXIS":"6925.369","TLE_LINE1":"1 48142U 21027BC  22125.86843832 -.00000217  00000-0  43274-5 0  9991","ELEMENT_SET_NO":"999","APOAPSIS":"548.152","EPHEMERIS_TYPE":"0","CENTER_NAME":"EARTH","MEAN_ELEMENT_THEORY":"SGP4","BSTAR":"0.00000432740000","MEAN_MOTION":"15.06393427"}];
